{"type": "FeatureCollection", "features": [{"type": "Feature", "properties": {"province": "BLUE RIDGE", "section": "NORTHERN"}, "geometry": {"type": "Polygon", "coordinates": [[[-77.4309, 39.4835], [-77.4659, 39.5091], [-77.5164, 39.4756], [-77.5368, 39.4621], [-77.539, 39.4103], [-77.5427, 39.3958], [-77.5641, 39.3102], [-77.5673, 39.2977], [-77.5957, 39.2501], [-77.6097, 39.2307], [-77.6344, 39.1963], [-77.6742, 39.1589], [-77.7005, 39.1342], [-77.7427, 39.0889], [-77.7671, 39.0627], [-77.8095, 39.018], [-77.836, 38.9899], [-77.8763, 38.947], [-77.8929, 38.9294], [-77.9395, 38.8743], [-77.9554, 38.8555], [-78.0106, 38.806], [-78.0167, 38.8004], [-78.0503, 38.7247], [-78.0553, 38.7132], [-78.0752, 38.6596], [-78.0821, 38.641], [-78.0874, 38.6265], [-78.1208, 38.559], [-78.1338, 38.5326], [-78.1802, 38.4855], [-78.1971, 38.4682], [-78.2622, 38.4252], [-78.3035, 38.3979], [-78.3471, 38.3669], [-78.4306, 38.3074], [-78.4421, 38.2992], [-78.5071, 38.2428], [-78.5256, 38.2267], [-78.5947, 38.1874], [-78.6329, 38.1657], [-78.6655, 38.1214], [-78.6904, 38.0875], [-78.722, 38.0457], [-78.7783, 37.9711], [-78.8117, 37.8865], [-78.8249, 37.8532], [-78.867, 37.8119], [-78.9045, 37.7751], [-78.9425, 37.7471], [-78.9829, 37.7173], [-79.0226, 37.6853], [-79.0807, 37.6385], [-79.1011, 37.6224], [-79.1446, 37.5879], [-79.1802, 37.56], [-79.2261, 37.524], [-79.2567, 37.4957], [-79.3056, 37.4503], [-79.3294, 37.4289], [-79.3555, 37.4054], [-79.4168, 37.3891], [-79.4246, 37.3877], [-79.5088, 37.3724], [-79.5236, 37.3555], [-79.5865, 37.2829], [-79.5991, 37.2684], [-79.6555, 37.2138], [-79.6759, 37.194], [-79.7226, 37.1579], [-79.7725, 37.1822], [-79.8681, 37.2287], [-79.8579, 37.2278], [-79.8093, 37.2978], [-79.7869, 37.3301], [-79.7751, 37.3802], [-79.7667, 37.4158], [-79.7213, 37.4531], [-79.6436, 37.5167], [-79.6369, 37.5222], [-79.5624, 37.5775], [-79.5495, 37.5872], [-79.4778, 37.6356], [-79.4512, 37.6536], [-79.4095, 37.7044], [-79.3839, 37.7355], [-79.3337, 37.768], [-79.286, 37.7987], [-79.2515, 37.828], [-79.1921, 37.8782], [-79.1738, 37.8916], [-79.0914, 37.9518], [-79.0607, 37.9741], [-79.0101, 38.0129], [-78.9294, 38.0744], [-78.8412, 38.1296], [-78.8067, 38.1511], [-78.7668, 38.1947], [-78.7547, 38.208], [-78.7052, 38.2681], [-78.6759, 38.3036], [-78.6469, 38.3431], [-78.6112, 38.3918], [-78.5831, 38.4148], [-78.5103, 38.4744], [-78.4412, 38.5511], [-78.4215, 38.5729], [-78.3822, 38.6258], [-78.3465, 38.6736], [-78.3264, 38.702], [-78.2778, 38.7703], [-78.2718, 38.7787], [-78.2553, 38.8018], [-78.1955, 38.8424], [-78.1627, 38.8647], [-78.1288, 38.912], [-78.081, 38.9784], [-78.0704, 38.9866], [-78.0436, 39.0073], [-77.9862, 39.0461], [-77.9451, 39.0739], [-77.9012, 39.105], [-77.8557, 39.1371], [-77.8284, 39.1715], [-77.8067, 39.1989], [-77.7549, 39.2379], [-77.688, 39.2968], [-77.6805, 39.3045], [-77.6372, 39.3487], [-77.6258, 39.3797], [-77.6086, 39.4264], [-77.6037, 39.4649], [-77.597, 39.5179], [-77.5889, 39.5512], [-77.5752, 39.6078], [-77.5652, 39.6363], [-77.55, 39.6797], [-77.5414, 39.7214], [-77.5349, 39.7532], [-77.5593, 39.8051], [-77.5664, 39.8202], [-77.5803, 39.8748], [-77.5686, 39.8877], [-77.5454, 39.9134], [-77.5382, 39.9692], [-77.5354, 39.991], [-77.4944, 40.0429], [-77.489, 40.0458], [-77.3945, 40.0972], [-77.3871, 40.1012], [-77.2953, 40.1287], [-77.2871, 40.1315], [-77.1802, 40.1672], [-77.1119, 40.182], [-77.0692, 40.195], [-77.0459, 40.2021], [-77.0499, 40.1812], [-77.0647, 40.1043], [-77.0741, 40.0981], [-77.148, 40.0486], [-77.1604, 40.0394], [-77.2364, 39.9826], [-77.2401, 39.9764], [-77.2836, 39.9034], [-77.2841, 39.8963], [-77.2896, 39.8188], [-77.2895, 39.8094], [-77.2885, 39.7363], [-77.2945, 39.7231], [-77.3319, 39.6407], [-77.3373, 39.6288], [-77.382, 39.5624], [-77.3977, 39.539], [-77.4309, 39.4835]]]}}, {"type": "Feature", "properties": {"province": "BLUE RIDGE", "section": "SOUTHERN"}, "geometry": {"type": "Polygon", "coordinates": [[[-79.8681, 37.2287], [-79.7725, 37.1822], [-79.7226, 37.1579], [-79.7707, 37.1205], [-79.8038, 37.0974], [-79.8873, 37.0388], [-79.9021, 37.0284], [-79.97, 36.9796], [-80.007, 36.953], [-80.0556, 36.9231], [-80.118, 36.8847], [-80.1429, 36.8682], [-80.2207, 36.8166], [-80.2281, 36.8113], [-80.31, 36.7516], [-80.3321, 36.7355], [-80.4031, 36.7038], [-80.4624, 36.6773], [-80.506, 36.6755], [-80.5687, 36.6728], [-80.6132, 36.6567], [-80.6675, 36.637], [-80.6953, 36.6025], [-80.7089, 36.5856], [-80.7489, 36.5256], [-80.7776, 36.4824], [-80.8138, 36.4557], [-80.8541, 36.4261], [-80.8905, 36.3923], [-80.9093, 36.3748], [-80.9718, 36.3325], [-80.9798, 36.3271], [-81.0674, 36.2878], [-81.0753, 36.2842], [-81.1629, 36.2497], [-81.2561, 36.196], [-81.2951, 36.1734], [-81.334, 36.1344], [-81.3985, 36.0695], [-81.4704, 36.0011], [-81.5442, 35.9423], [-81.5541, 35.9376], [-81.6488, 35.892], [-81.6746, 35.8795], [-81.7452, 35.8489], [-81.8275, 35.813], [-81.8429, 35.8076], [-81.9239, 35.779], [-81.944, 35.772], [-81.9944, 35.7544], [-82.0062, 35.7112], [-82.0215, 35.6547], [-82.0159, 35.6247], [-81.9997, 35.5375], [-81.995, 35.5121], [-82.0174, 35.4673], [-82.0236, 35.454], [-82.0608, 35.3743], [-82.0886, 35.3112], [-82.0902, 35.287], [-82.0928, 35.2467], [-82.1242, 35.2061], [-82.1398, 35.1859], [-82.1971, 35.141], [-82.2485, 35.1007], [-82.28, 35.0838], [-82.3427, 35.0502], [-82.3735, 35.0382], [-82.4022, 35.0271], [-82.4589, 34.9843], [-82.4639, 34.9805], [-82.5433, 34.9283], [-82.5579, 34.9186], [-82.6478, 34.9279], [-82.6798, 34.9313], [-82.7524, 34.9524], [-82.7792, 34.9602], [-82.858, 34.9755], [-82.9433, 34.9456], [-82.9529, 34.9351], [-82.9823, 34.9025], [-83.0088, 34.8595], [-83.0152, 34.8492], [-83.0736, 34.7955], [-83.0793, 34.793], [-83.1714, 34.7525], [-83.2803, 34.7263], [-83.3508, 34.7138], [-83.3874, 34.7183], [-83.4585, 34.7272], [-83.4933, 34.7378], [-83.5557, 34.7568], [-83.5968, 34.7478], [-83.6332, 34.7398], [-83.6979, 34.7153], [-83.7211, 34.7065], [-83.7882, 34.6661], [-83.795, 34.662], [-83.8615, 34.6389], [-83.8891, 34.6342], [-83.9763, 34.6193], [-83.9927, 34.6101], [-84.0821, 34.5595], [-84.0925, 34.5537], [-84.1705, 34.5077], [-84.239, 34.4672], [-84.2566, 34.4807], [-84.2915, 34.5075], [-84.3167, 34.5527], [-84.3206, 34.5597], [-84.35, 34.6231], [-84.3572, 34.635], [-84.3922, 34.6925], [-84.421, 34.6998], [-84.4657, 34.7111], [-84.528, 34.7093], [-84.5504, 34.7086], [-84.6165, 34.6993], [-84.6351, 34.6941], [-84.6482, 34.6904], [-84.6509, 34.7187], [-84.6758, 34.7756], [-84.6946, 34.8184], [-84.6949, 34.8617], [-84.6952, 34.9186], [-84.6792, 34.9478], [-84.6516, 34.9984], [-84.6405, 35.0305], [-84.6197, 35.0906], [-84.6162, 35.1168], [-84.6072, 35.1847], [-84.5949, 35.2025], [-84.5412, 35.28], [-84.5156, 35.3169], [-84.4753, 35.3499], [-84.3981, 35.4132], [-84.3794, 35.4285], [-84.3006, 35.4505], [-84.2468, 35.4656], [-84.1985, 35.4835], [-84.0983, 35.5205], [-84.0592, 35.5348], [-84.0166, 35.5766], [-83.986, 35.6065], [-83.9561, 35.6503], [-83.9029, 35.7279], [-83.8653, 35.7826], [-83.844, 35.8024], [-83.7899, 35.8523], [-83.7622, 35.8485], [-83.677, 35.8369], [-83.6531, 35.8336], [-83.5525, 35.82], [-83.5442, 35.8218], [-83.4371, 35.8442], [-83.4285, 35.846], [-83.355, 35.9022], [-83.3434, 35.9111], [-83.2497, 35.9221], [-83.2049, 35.9273], [-83.1411, 35.9392], [-83.11, 35.945], [-83.0358, 35.9663], [-82.9753, 35.9836], [-82.9342, 36.0011], [-82.8519, 36.036], [-82.8367, 36.0432], [-82.7414, 36.0884], [-82.7337, 36.092], [-82.644, 36.1308], [-82.6096, 36.1456], [-82.5432, 36.1677], [-82.49, 36.1853], [-82.44, 36.2004], [-82.3731, 36.2205], [-82.3347, 36.2282], [-82.2689, 36.2412], [-82.2255, 36.2427], [-82.1558, 36.2449], [-82.1157, 36.2532], [-82.0596, 36.2649], [-82.0448, 36.3054], [-82.0252, 36.3589], [-82.0161, 36.3905], [-81.9914, 36.4765], [-81.9803, 36.5151], [-81.9356, 36.5484], [-81.8544, 36.6088], [-81.7665, 36.6632], [-81.671, 36.709], [-81.6017, 36.7419], [-81.5746, 36.7537], [-81.4767, 36.7963], [-81.3661, 36.8099], [-81.3402, 36.8129], [-81.2737, 36.8219], [-81.2026, 36.8315], [-81.1627, 36.8311], [-81.0506, 36.8299], [-81.0187, 36.8295], [-80.9409, 36.8446], [-80.832, 36.8655], [-80.8241, 36.867], [-80.7341, 36.9078], [-80.6408, 36.9566], [-80.6171, 36.9691], [-80.5481, 37.006], [-80.5226, 37.0196], [-80.449, 37.0469], [-80.3918, 37.0681], [-80.35, 37.0881], [-80.3119, 37.1062], [-80.251, 37.1294], [-80.196, 37.1503], [-80.1606, 37.1793], [-80.1333, 37.2017], [-80.0902, 37.2475], [-80.0766, 37.2619], [-80.0113, 37.2353], [-79.9952, 37.2354], [-79.9581, 37.2357], [-79.8829, 37.2298], [-79.8681, 37.2287]]]}}]}